IRIDIUM 39              
1 25042U 97069D   25265.48162227  .00000920  00000+0  23522-3 0  9993
2 25042  86.3982 169.4600 0017451 349.1737  10.9089 14.49336412463051
IRIDIUM 38              
1 25043U 97069E   25265.50824939  .00000740  00000+0  23724-3 0  9996
2 25043  86.4026 192.2367 0003713 109.6823 250.4776 14.38198882459949
IRIDIUM 42              
1 25077U 97077A   25265.56444200  .00000677  00000+0  22445-3 0  9995
2 25077  86.4022 198.4950 0002576 102.4958 257.6527 14.36427833455177
IRIDIUM 44              
1 25078U 97077B   25265.46443948  .00000673  00000+0  20606-3 0  9996
2 25078  86.4034 180.2294 0004060  77.4934 282.6719 14.40322835457709
IRIDIUM 45              
1 25104U 97082A   25265.30222466  .00024953  00000+0  81797-3 0  9990
2 25104  86.3628   0.6173 0107306 327.5370  31.9303 15.26002718466836
IRIDIUM 24              
1 25105U 97082B   25265.45079955  .00000897  00000+0  26631-3 0  9997
2 25105  86.3918  39.0150 0013345 113.0081 247.2528 14.42193178457239
IRIDIUM 51              
1 25262U 98018A   25265.31937639  .00076750  00000+0  13570-2 0  9996
2 25262  86.3860   7.4936 0073651 234.0058 125.4358 15.47003002462005
IRIDIUM 57              
1 25273U 98019B   25265.52307272  .00000456  00000+0  15052-3 0  9994
2 25273  86.3908 104.4708 0002211  89.8543 270.2907 14.35952716438759
