<?xml version="1.0" encoding="UTF-8"?>
<ndm xmlns:xsi="http://www.w3.org/2001/XMLSchema-instance" xsi:noNamespaceSchemaLocation="https://sanaregistry.org/r/ndmxml_unqualified/ndmxml-2.0.0-master-2.0.xsd">
<omm id="CCSDS_OMM_VERS" version="2.0">
<header><CREATION_DATE/><ORIGINATOR/></header><body><segment><metadata><OBJECT_NAME>IRIDIUM 39</OBJECT_NAME><OBJECT_ID>1997-069D</OBJECT_ID><CENTER_NAME>EARTH</CENTER_NAME><REF_FRAME>TEME</REF_FRAME><TIME_SYSTEM>UTC</TIME_SYSTEM><MEAN_ELEMENT_THEORY>SGP4</MEAN_ELEMENT_THEORY></metadata><data><meanElements><EPOCH>2025-09-22T11:33:32.164128</EPOCH><MEAN_MOTION>14.49336412</MEAN_MOTION><ECCENTRICITY>.00174518</ECCENTRICITY><INCLINATION>86.3982</INCLINATION><RA_OF_ASC_NODE>169.4600</RA_OF_ASC_NODE><ARG_OF_PERICENTER>349.1737</ARG_OF_PERICENTER><MEAN_ANOMALY>10.9089</MEAN_ANOMALY></meanElements><tleParameters><EPHEMERIS_TYPE>0</EPHEMERIS_TYPE><CLASSIFICATION_TYPE>U</CLASSIFICATION_TYPE><NORAD_CAT_ID>25042</NORAD_CAT_ID><ELEMENT_SET_NO>999</ELEMENT_SET_NO><REV_AT_EPOCH>46305</REV_AT_EPOCH><BSTAR>.23522383E-3</BSTAR><MEAN_MOTION_DOT>.92E-5</MEAN_MOTION_DOT><MEAN_MOTION_DDOT>0</MEAN_MOTION_DDOT></tleParameters></data></segment></body></omm>
<omm id="CCSDS_OMM_VERS" version="2.0">
<header><CREATION_DATE/><ORIGINATOR/></header><body><segment><metadata><OBJECT_NAME>IRIDIUM 38</OBJECT_NAME><OBJECT_ID>1997-069E</OBJECT_ID><CENTER_NAME>EARTH</CENTER_NAME><REF_FRAME>TEME</REF_FRAME><TIME_SYSTEM>UTC</TIME_SYSTEM><MEAN_ELEMENT_THEORY>SGP4</MEAN_ELEMENT_THEORY></metadata><data><meanElements><EPOCH>2025-09-22T12:11:52.747296</EPOCH><MEAN_MOTION>14.38198882</MEAN_MOTION><ECCENTRICITY>.00037135</ECCENTRICITY><INCLINATION>86.4026</INCLINATION><RA_OF_ASC_NODE>192.2367</RA_OF_ASC_NODE><ARG_OF_PERICENTER>109.6823</ARG_OF_PERICENTER><MEAN_ANOMALY>250.4776</MEAN_ANOMALY></meanElements><tleParameters><EPHEMERIS_TYPE>0</EPHEMERIS_TYPE><CLASSIFICATION_TYPE>U</CLASSIFICATION_TYPE><NORAD_CAT_ID>25043</NORAD_CAT_ID><ELEMENT_SET_NO>999</ELEMENT_SET_NO><REV_AT_EPOCH>45994</REV_AT_EPOCH><BSTAR>.23723548E-3</BSTAR><MEAN_MOTION_DOT>.74E-5</MEAN_MOTION_DOT><MEAN_MOTION_DDOT>0</MEAN_MOTION_DDOT></tleParameters></data></segment></body></omm>
<omm id="CCSDS_OMM_VERS" version="2.0">
<header><CREATION_DATE/><ORIGINATOR/></header><body><segment><metadata><OBJECT_NAME>IRIDIUM 42</OBJECT_NAME><OBJECT_ID>1997-077A</OBJECT_ID><CENTER_NAME>EARTH</CENTER_NAME><REF_FRAME>TEME</REF_FRAME><TIME_SYSTEM>UTC</TIME_SYSTEM><MEAN_ELEMENT_THEORY>SGP4</MEAN_ELEMENT_THEORY></metadata><data><meanElements><EPOCH>2025-09-22T13:32:47.788800</EPOCH><MEAN_MOTION>14.36427833</MEAN_MOTION><ECCENTRICITY>.00025768</ECCENTRICITY><INCLINATION>86.4022</INCLINATION><RA_OF_ASC_NODE>198.4950</RA_OF_ASC_NODE><ARG_OF_PERICENTER>102.4958</ARG_OF_PERICENTER><MEAN_ANOMALY>257.6527</MEAN_ANOMALY></meanElements><tleParameters><EPHEMERIS_TYPE>0</EPHEMERIS_TYPE><CLASSIFICATION_TYPE>U</CLASSIFICATION_TYPE><NORAD_CAT_ID>25077</NORAD_CAT_ID><ELEMENT_SET_NO>999</ELEMENT_SET_NO><REV_AT_EPOCH>45517</REV_AT_EPOCH><BSTAR>.22444687E-3</BSTAR><MEAN_MOTION_DOT>.677E-5</MEAN_MOTION_DOT><MEAN_MOTION_DDOT>0</MEAN_MOTION_DDOT></tleParameters></data></segment></body></omm>
<omm id="CCSDS_OMM_VERS" version="2.0">
<header><CREATION_DATE/><ORIGINATOR/></header><body><segment><metadata><OBJECT_NAME>IRIDIUM 44</OBJECT_NAME><OBJECT_ID>1997-077B</OBJECT_ID><CENTER_NAME>EARTH</CENTER_NAME><REF_FRAME>TEME</REF_FRAME><TIME_SYSTEM>UTC</TIME_SYSTEM><MEAN_ELEMENT_THEORY>SGP4</MEAN_ELEMENT_THEORY></metadata><data><meanElements><EPOCH>2025-09-22T11:08:47.571072</EPOCH><MEAN_MOTION>14.40322835</MEAN_MOTION><ECCENTRICITY>.00040609</ECCENTRICITY><INCLINATION>86.4034</INCLINATION><RA_OF_ASC_NODE>180.2294</RA_OF_ASC_NODE><ARG_OF_PERICENTER>77.4934</ARG_OF_PERICENTER><MEAN_ANOMALY>282.6719</MEAN_ANOMALY></meanElements><tleParameters><EPHEMERIS_TYPE>0</EPHEMERIS_TYPE><CLASSIFICATION_TYPE>U</CLASSIFICATION_TYPE><NORAD_CAT_ID>25078</NORAD_CAT_ID><ELEMENT_SET_NO>999</ELEMENT_SET_NO><REV_AT_EPOCH>45770</REV_AT_EPOCH><BSTAR>.20605867E-3</BSTAR><MEAN_MOTION_DOT>.673E-5</MEAN_MOTION_DOT><MEAN_MOTION_DDOT>0</MEAN_MOTION_DDOT></tleParameters></data></segment></body></omm>
<omm id="CCSDS_OMM_VERS" version="2.0">
<header><CREATION_DATE/><ORIGINATOR/></header><body><segment><metadata><OBJECT_NAME>IRIDIUM 45</OBJECT_NAME><OBJECT_ID>1997-082A</OBJECT_ID><CENTER_NAME>EARTH</CENTER_NAME><REF_FRAME>TEME</REF_FRAME><TIME_SYSTEM>UTC</TIME_SYSTEM><MEAN_ELEMENT_THEORY>SGP4</MEAN_ELEMENT_THEORY></metadata><data><meanElements><EPOCH>2025-09-22T07:15:12.210624</EPOCH><MEAN_MOTION>15.26002718</MEAN_MOTION><ECCENTRICITY>.01073065</ECCENTRICITY><INCLINATION>86.3628</INCLINATION><RA_OF_ASC_NODE>0.6173</RA_OF_ASC_NODE><ARG_OF_PERICENTER>327.5370</ARG_OF_PERICENTER><MEAN_ANOMALY>31.9303</MEAN_ANOMALY></meanElements><tleParameters><EPHEMERIS_TYPE>0</EPHEMERIS_TYPE><CLASSIFICATION_TYPE>U</CLASSIFICATION_TYPE><NORAD_CAT_ID>25104</NORAD_CAT_ID><ELEMENT_SET_NO>999</ELEMENT_SET_NO><REV_AT_EPOCH>46683</REV_AT_EPOCH><BSTAR>.81797295E-3</BSTAR><MEAN_MOTION_DOT>.24953E-3</MEAN_MOTION_DOT><MEAN_MOTION_DDOT>0</MEAN_MOTION_DDOT></tleParameters></data></segment></body></omm>
<omm id="CCSDS_OMM_VERS" version="2.0">
<header><CREATION_DATE/><ORIGINATOR/></header><body><segment><metadata><OBJECT_NAME>IRIDIUM 24</OBJECT_NAME><OBJECT_ID>1997-082B</OBJECT_ID><CENTER_NAME>EARTH</CENTER_NAME><REF_FRAME>TEME</REF_FRAME><TIME_SYSTEM>UTC</TIME_SYSTEM><MEAN_ELEMENT_THEORY>SGP4</MEAN_ELEMENT_THEORY></metadata><data><meanElements><EPOCH>2025-09-22T10:49:09.081120</EPOCH><MEAN_MOTION>14.42193178</MEAN_MOTION><ECCENTRICITY>.00133454</ECCENTRICITY><INCLINATION>86.3918</INCLINATION><RA_OF_ASC_NODE>39.0150</RA_OF_ASC_NODE><ARG_OF_PERICENTER>113.0081</ARG_OF_PERICENTER><MEAN_ANOMALY>247.2528</MEAN_ANOMALY></meanElements><tleParameters><EPHEMERIS_TYPE>0</EPHEMERIS_TYPE><CLASSIFICATION_TYPE>U</CLASSIFICATION_TYPE><NORAD_CAT_ID>25105</NORAD_CAT_ID><ELEMENT_SET_NO>999</ELEMENT_SET_NO><REV_AT_EPOCH>45723</REV_AT_EPOCH><BSTAR>.26630906E-3</BSTAR><MEAN_MOTION_DOT>.897E-5</MEAN_MOTION_DOT><MEAN_MOTION_DDOT>0</MEAN_MOTION_DDOT></tleParameters></data></segment></body></omm>
<omm id="CCSDS_OMM_VERS" version="2.0">
<header><CREATION_DATE/><ORIGINATOR/></header><body><segment><metadata><OBJECT_NAME>IRIDIUM 51</OBJECT_NAME><OBJECT_ID>1998-018A</OBJECT_ID><CENTER_NAME>EARTH</CENTER_NAME><REF_FRAME>TEME</REF_FRAME><TIME_SYSTEM>UTC</TIME_SYSTEM><MEAN_ELEMENT_THEORY>SGP4</MEAN_ELEMENT_THEORY></metadata><data><meanElements><EPOCH>2025-09-22T07:39:54.120096</EPOCH><MEAN_MOTION>15.47003002</MEAN_MOTION><ECCENTRICITY>.00736519</ECCENTRICITY><INCLINATION>86.3860</INCLINATION><RA_OF_ASC_NODE>7.4936</RA_OF_ASC_NODE><ARG_OF_PERICENTER>234.0058</ARG_OF_PERICENTER><MEAN_ANOMALY>125.4358</MEAN_ANOMALY></meanElements><tleParameters><EPHEMERIS_TYPE>0</EPHEMERIS_TYPE><CLASSIFICATION_TYPE>U</CLASSIFICATION_TYPE><NORAD_CAT_ID>25262</NORAD_CAT_ID><ELEMENT_SET_NO>999</ELEMENT_SET_NO><REV_AT_EPOCH>46200</REV_AT_EPOCH><BSTAR>.13570476E-2</BSTAR><MEAN_MOTION_DOT>.7675E-3</MEAN_MOTION_DOT><MEAN_MOTION_DDOT>0</MEAN_MOTION_DDOT></tleParameters></data></segment></body></omm>
<omm id="CCSDS_OMM_VERS" version="2.0">
<header><CREATION_DATE/><ORIGINATOR/></header><body><segment><metadata><OBJECT_NAME>IRIDIUM 57</OBJECT_NAME><OBJECT_ID>1998-019B</OBJECT_ID><CENTER_NAME>EARTH</CENTER_NAME><REF_FRAME>TEME</REF_FRAME><TIME_SYSTEM>UTC</TIME_SYSTEM><MEAN_ELEMENT_THEORY>SGP4</MEAN_ELEMENT_THEORY></metadata><data><meanElements><EPOCH>2025-09-22T12:33:13.483008</EPOCH><MEAN_MOTION>14.35952716</MEAN_MOTION><ECCENTRICITY>.0002211</ECCENTRICITY><INCLINATION>86.3908</INCLINATION><RA_OF_ASC_NODE>104.4708</RA_OF_ASC_NODE><ARG_OF_PERICENTER>89.8543</ARG_OF_PERICENTER><MEAN_ANOMALY>270.2907</MEAN_ANOMALY></meanElements><tleParameters><EPHEMERIS_TYPE>0</EPHEMERIS_TYPE><CLASSIFICATION_TYPE>U</CLASSIFICATION_TYPE><NORAD_CAT_ID>25273</NORAD_CAT_ID><ELEMENT_SET_NO>999</ELEMENT_SET_NO><REV_AT_EPOCH>43875</REV_AT_EPOCH><BSTAR>.15052455E-3</BSTAR><MEAN_MOTION_DOT>.456E-5</MEAN_MOTION_DOT><MEAN_MOTION_DDOT>0</MEAN_MOTION_DDOT></tleParameters></data></segment></body></omm>

</ndm>
